STARLINK-30575          
1 58052U 23158B   26067.66667824  .00006698  00000+0  25285-3 0  9998
2 58052  43.0037  33.1816 0001738 277.6806 288.0882 15.27562199  5745
HYPERFIELD-1A           
1 60562U 24149CY  26068.76488211  .00008569  00000+0  30052-3 0  9998
2 60562  97.3842 149.5066 0003865 313.7844  46.3076 15.29681349 86836
